[{"OBJECT_NAME":"STARLINK-4016","OBJECT_ID":"2022-052F","EPOCH":"2026-03-09T20:21:18.095040","MEAN_MOTION":15.08838271,"ECCENTRICITY":0.00012483,"INCLINATION":53.2166,"RA_OF_ASC_NODE":278.4217,"ARG_OF_PERICENTER":92.9844,"MEAN_ANOMALY":267.1291,"EPHEMERIS_TYPE":0,"CLASSIFICATION_TYPE":"U","NORAD_CAT_ID":52603,"ELEMENT_SET_NO":999,"REV_AT_EPOCH":21168,"BSTAR":-1.3735737e-5,"MEAN_MOTION_DOT":-5.06e-6,"MEAN_MOTION_DDOT":0},{"OBJECT_NAME":"OBJECT J","OBJECT_ID":"2017-042J","EPOCH":"2026-03-09T23:17:19.167936","MEAN_MOTION":15.08203331,"ECCENTRICITY":0.00078186,"INCLINATION":97.4246,"RA_OF_ASC_NODE":235.0467,"ARG_OF_PERICENTER":81.5059,"MEAN_ANOMALY":278.7055,"EPHEMERIS_TYPE":0,"CLASSIFICATION_TYPE":"U","NORAD_CAT_ID":42833,"ELEMENT_SET_NO":999,"REV_AT_EPOCH":47205,"BSTAR":0.00039182004,"MEAN_MOTION_DOT":6.006e-5,"MEAN_MOTION_DDOT":0}]
